[Satellite]
VERSION=1.1
NAME=VIASAT-1
NICKNAME=VIASAT-1
TLE1=1 37843U 11059A   15053.40852800 -.00000048  00000-0  10000-3 0  9999
TLE2=2 37843   0.0049 124.4880 0001595 200.1419 219.2874  1.00271208 12832
